ONEWEB-0616             
1 55157U 23004T   24039.92568762  .00000018  00000+0  13216-4 0  9990
2 55157  87.9247 176.7449 0002803  95.9754 264.1697 13.17647348 54549
ONEWEB-0617             
1 55158U 23004U   24040.49920914  .00000105  00000+0  26044-3 0  9995
2 55158  87.8992 191.7841 0001136 116.4158 243.7086 13.11414337 53328
ONEWEB-0618             
1 55159U 23004V   24040.34738863  .00000337  00000+0  13152-3 0  9993
2 55159  86.9123 139.0221 0012588 350.4610   9.6341 14.26785543 56972
ONEWEB-0619             
1 55160U 23004W   24040.41295939  .00000054  00000+0  10569-3 0  9990
2 55160  87.9245 176.6249 0002216 114.4250 245.7113 13.17649464 54509
ONEWEB-0620             
1 55161U 23004X   24039.88396024  .00000183  00000+0  48194-3 0  9995
2 55161  87.8992 191.9124 0000949 104.4616 255.6617 13.11413500 53205
ONEWEB-0621             
1 55162U 23004Y   24039.90991910 -.00000529  00000+0 -15274-2 0  9992
2 55162  87.8989 191.8799 0001688 114.9253 245.2050 13.11415437 53187
ONEWEB-0622             
1 55163U 23004Z   24039.91642968 -.00000405  00000+0 -11797-2 0  9999
2 55163  87.8993 191.8928 0000927 141.4010 218.7185 13.11418966 53171
ONEWEB-0623             
1 55164U 23004AA  24039.87665143  .00000001  00000+0 -31454-4 0  9990
2 55164  87.9246 176.7840 0001337 138.5889 221.5344 13.17649414 54424
